NORAD_CAT_ID,OBJECT_NAME,OBJECT_TYPE,EPOCH,MEAN_MOTION,ECCENTRICITY,INCLINATION,RA_OF_ASC_NODE,ARG_OF_PERICENTER,MEAN_ANOMALY,BSTAR,MEAN_MOTION_DOT,MEAN_MOTION_DDOT,TLE_LINE0,TLE_LINE1,TLE_LINE2,SEMIMAJOR_AXIS,PERIOD,APOGEE,PERIGEE,DECAYED
52582.0,STARLINK-3886,PAYLOAD,2022-07-25 14:00:01,15.16374274,0.0001802,53.2174,298.8520000000001,47.3302,164.4596,-0.059049,-0.01074774,0.0,0 STARLINK-3886,1 52582U 22051AY  22206.58334491 -.01074774  00000-0 -59049-1 0  9991,2 52582  53.2174 298.8520 0001802  47.3302 164.4596 15.16374274  1309,6894.946999999999,94.963,518.054,515.569,0.0
52582.0,STARLINK-3886,PAYLOAD,2022-07-25 22:00:00,15.15616294,0.0001614,53.2174,297.3386,52.9996,178.9759,-0.060514,-0.01077543,0.0,0 STARLINK-3886,1 52582U 22051AY  22206.91667824 -.01077543  00000-0 -60514-1 0  9993,2 52582  53.2174 297.3386 0001614  52.9996 178.9759 15.15616294  1306,6897.245,95.011,520.2230000000002,517.997,0.0
52582.0,STARLINK-3886,PAYLOAD,2022-07-26 06:00:00,15.14855206,0.0001694,53.2175,295.827,48.1675,203.0815,-0.061614,-0.0107388,0.0,0 STARLINK-3886,1 52582U 22051AY  22207.25001157 -.01073880  00000-0 -61614-1 0  9994,2 52582  53.2175 295.8270 0001694  48.1675 203.0815 15.14855206 12011,6899.555,95.059,522.589,520.251,0.0
52582.0,STARLINK-3886,PAYLOAD,2022-07-26 14:00:01,15.14095627,0.0001742,53.2175,294.3199,45.8185,223.7898,-0.062972,-0.01074125,0.0,0 STARLINK-3886,1 52582U 22051AY  22207.58334491 -.01074125  00000-0 -62972-1 0  9991,2 52582  53.2175 294.3199 0001742  45.8185 223.7898 15.14095627  1302,6901.863,95.106,524.93,522.525,0.0
52582.0,STARLINK-3886,PAYLOAD,2022-07-26 22:00:00,15.13338143,0.0001559,53.2174,292.8116,50.0297,237.0263,-0.064605,-0.01078272,0.0,0 STARLINK-3886,1 52582U 22051AY  22207.91667824 -.01078272  00000-0 -64605-1 0  9999,2 52582  53.2174 292.8116 0001559  50.0297 237.0263 15.13338143  1307,6904.165,95.154,527.107,524.9540000000002,0.0
52582.0,STARLINK-3886,PAYLOAD,2022-07-27 06:00:02,15.12576079,0.0001583,53.2177,291.3055,48.0304,255.6244,-0.065638,-0.01072699,0.0,0 STARLINK-3886,1 52582U 22051AY  22208.25002315 -.01072699  00000-0 -65638-1 0  9999,2 52582  53.2177 291.3055 0001583  48.0304 255.6244 15.12576079 12161,6906.484,95.202,529.442,527.256,0.0
52582.0,STARLINK-3886,PAYLOAD,2022-07-27 14:00:01,15.11817482,0.0001735,53.2176,289.8037,41.242,277.9705,-0.067175,-0.01074593,0.0,0 STARLINK-3886,1 52582U 22051AY  22208.58334491 -.01074593  00000-0 -67175-1 0  9991,2 52582  53.2176 289.8037 0001735  41.2420 277.9705 15.11817482  1303,6908.794,95.25,531.8580000000002,529.461,0.0
52582.0,STARLINK-3886,PAYLOAD,2022-07-27 22:00:00,15.11059316,0.0001579,53.2175,288.3006,44.4882,289.4345,-0.068838,-0.01077844,0.0,0 STARLINK-3886,1 52582U 22051AY  22208.91667824 -.01077844  00000-0 -68838-1 0  9996,2 52582  53.2175 288.3006 0001579  44.4882 289.4345 15.11059316  1307,6911.105,95.297,534.061,531.879,0.0
52582.0,STARLINK-3886,PAYLOAD,2022-07-28 08:00:01,15.101078400000002,0.0001636999999999,53.2177,286.4258,44.2594,36.7675,-0.070489,-0.01075115,0.0,0 STARLINK-3886,1 52582U 22051AY  22209.33334491 -.01075115  00000-0 -70489-1 0  9998,2 52582  53.2177 286.4258 0001637  44.2594  36.7675 15.10107840 12328,6914.0080000000025,95.357,537.005,534.741,0.0
52582.0,STARLINK-3886,PAYLOAD,2022-07-28 14:00:01,15.09415344,0.0001482,53.2177,285.3032,49.4623,311.1594,-0.04216,-0.00639648,0.0,0 STARLINK-3886,1 52582U 22051AY  22209.58334491 -.00639648  00000-0 -42160-1 0  9996,2 52582  53.2177 285.3032 0001482  49.4623 311.1594 15.09415344  1310,6916.121999999999,95.401,539.012,536.962,0.0
52582.0,STARLINK-3886,PAYLOAD,2022-07-28 22:00:00,15.08849244,0.0001517,53.2175,283.8047,50.0255,322.625,-0.0014172,-0.00022778,0.0,0 STARLINK-3886,1 52582U 22051AY  22209.91667824 -.00022778  00000-0 -14172-2 0  9995,2 52582  53.2175 283.8047 0001517  50.0255 322.6250 15.08849244  1309,6917.852,95.437,540.7669999999998,538.668,0.0
52582.0,STARLINK-3886,PAYLOAD,2022-07-29 00:00:00,15.08834773,0.0001543,53.2175,283.4303,48.2406,57.31399999999999,0.00018855,2.714e-05,0.0,0 STARLINK-3886,1 52582U 22051AY  22210.00001157  .00002714  00000-0  18855-3 0  9997,2 52582  53.2175 283.4303 0001543  48.2406  57.3140 15.08834773 12422,6917.896,95.438,540.8290000000002,538.694,0.0
52582.0,STARLINK-3886,PAYLOAD,2022-07-29 14:00:01,15.0884766,0.0001691,53.2146,280.8069,40.124,355.7387,0.0014408,0.00022722,0.0,0 STARLINK-3886,1 52582U 22051AY  22210.58334491  .00022722  00000-0  14408-2 0  9990,2 52582  53.2146 280.8069 0001691  40.1240 355.7387 15.08847660  1303,6917.857,95.437,540.8919999999998,538.552,0.0
52582.0,STARLINK-3886,PAYLOAD,2022-07-29 22:00:00,15.08861312,0.0001636,53.2148,279.3089,44.6805,2.7997,-0.0038104,-0.00060457,0.0,0 STARLINK-3886,1 52582U 22051AY  22210.91667824 -.00060457  00000-0 -38104-2 0  9994,2 52582  53.2148 279.3089 0001636  44.6805   2.7997 15.08861312  1301,6917.815,95.436,540.812,538.548,0.0
52582.0,STARLINK-3886,PAYLOAD,2022-07-30 06:00:00,15.08852958,0.0001706999999999,53.2156,277.8125,50.3385,8.7283,-0.0039115,-0.00062026,0.0,0 STARLINK-3886,1 52582U 22051AY  22211.25001157 -.00062026  00000-0 -39115-2 0  9990,2 52582  53.2156 277.8125 0001707  50.3385   8.7283 15.08852958 12616,6917.840999999999,95.437,540.887,538.525,0.0
52582.0,STARLINK-3886,PAYLOAD,2022-07-30 14:00:01,15.08780479,0.000192,53.2156,276.3178,46.0895,24.5647,0.0020663,0.00032697,0.0,0 STARLINK-3886,1 52582U 22051AY  22211.58334491  .00032697  00000-0  20663-2 0  9993,2 52582  53.2156 276.3178 0001920  46.0895  24.5647 15.08780479  1305,6918.062,95.441,541.256,538.599,0.0
52582.0,STARLINK-3886,PAYLOAD,2022-07-30 22:00:00,15.08797877,0.000178,53.2154,274.8198,48.6247,33.5675,-0.00017937,-3.138e-05,0.0,0 STARLINK-3886,1 52582U 22051AY  22211.91667824 -.00003138  00000-0 -17937-3 0  9990,2 52582  53.2154 274.8198 0001780  48.6247  33.5675 15.08797877 12719,6918.009,95.44,541.106,538.643,0.0
52582.0,STARLINK-3886,PAYLOAD,2022-07-31 14:00:01,15.08810426,0.0001915,53.2154,271.8286,43.0774,62.2397,0.002612,0.00041494,0.0,0 STARLINK-3886,1 52582U 22051AY  22212.58334491  .00041494  00000-0  26120-2 0  9993,2 52582  53.2154 271.8286 0001915  43.0774  62.2397 15.08810426  1307,6917.971,95.439,541.161,538.511,0.0
52582.0,STARLINK-3886,PAYLOAD,2022-07-31 22:00:00,15.08834204,0.000178,53.2154,270.3305,46.0174,70.8825,-1.8831e-05,-5.88e-06,0.0,0 STARLINK-3886,1 52582U 22051AY  22212.91667824 -.00000588  00000-0 -18831-4 0  9992,2 52582  53.2154 270.3305 0001780  46.0174  70.8825 15.08834204  1301,6917.898,95.438,540.994,538.5319999999998,0.0
52582.0,STARLINK-3886,PAYLOAD,2022-08-01 06:00:00,15.08853636,0.0001839,53.2155,268.8341,48.5684,79.9139,-0.001196,-0.00019279,0.0,0 STARLINK-3886,1 52582U 22051AY  22213.25001157 -.00019279  00000-0 -11960-2 0  9992,2 52582  53.2155 268.8341 0001839  48.5684  79.9139 15.08853636 12919,6917.839,95.437,540.976,538.432,0.0
52582.0,STARLINK-3886,PAYLOAD,2022-08-01 14:00:01,15.08818018,0.0002000999999999,53.2156,267.3392,42.651,97.44,0.0029551,0.00047029,0.0,0 STARLINK-3886,1 52582U 22051AY  22213.58334491  .00047029  00000-0  29551-2 0  9995,2 52582  53.2156 267.3392 0002001  42.6510  97.4400 15.08818018  1307,6917.948,95.439,541.197,538.428,0.0
52582.0,STARLINK-3886,PAYLOAD,2022-08-01 22:00:00,15.08839284,0.0001844999999999,53.2157,265.841,46.2022,105.4834,0.0004681,7.169e-05,0.0,0 STARLINK-3886,1 52582U 22051AY  22213.91667824  .00007169  00000-0  46810-3 0  9990,2 52582  53.2157 265.8410 0001845  46.2022 105.4834 15.08839284  1304,6917.8830000000025,95.438,541.024,538.471,0.0
52582.0,STARLINK-3886,PAYLOAD,2022-08-02 06:00:02,15.088629,0.0001906,53.2159,264.3447,48.3325,115.0082,-0.0014395,-0.00023139,0.0,0 STARLINK-3886,1 52582U 22051AY  22214.25002315 -.00023139  00000-0 -14395-2 0  9995,2 52582  53.2159 264.3447 0001906  48.3325 115.0082 15.08862900 13066,6917.81,95.436,540.994,538.357,0.0
52582.0,STARLINK-3886,PAYLOAD,2022-08-02 14:00:01,15.08826413,0.0002064,53.2159,262.8496,42.7774,132.119,0.0029906999999999,0.00047614,0.0,0 STARLINK-3886,1 52582U 22051AY  22214.58334491  .00047614  00000-0  29907-2 0  9991,2 52582  53.2159 262.8496 0002064  42.7774 132.1190 15.08826413  1308,6917.922,95.438,541.215,538.359,0.0
52582.0,STARLINK-3886,PAYLOAD,2022-08-03 06:00:00,15.08870443,0.0001934,53.2163,259.8554,48.4061,149.6966,-0.0015867,-0.00025473,0.0,0 STARLINK-3886,1 52582U 22051AY  22215.25001157 -.00025473  00000-0 -15867-2 0  9997,2 52582  53.2163 259.8554 0001934  48.4061 149.6966 15.08870443 13210,6917.7869999999975,95.436,540.99,538.314,0.0
52582.0,STARLINK-3886,PAYLOAD,2022-08-03 14:00:01,15.08842405,0.0002059,53.216,258.3601,42.7755,166.9525,0.0015272,0.00024103,0.0,0 STARLINK-3886,1 52582U 22051AY  22215.58334491  .00024103  00000-0  15272-2 0  9990,2 52582  53.2160 258.3601 0002059  42.7755 166.9525 15.08842405  1307,6917.873000000001,95.437,541.1619999999998,538.314,0.0
52582.0,STARLINK-3886,PAYLOAD,2022-08-03 22:00:01,15.08828647,0.0001815,53.2162,256.8618,45.5441,175.86700000000005,0.00038431,5.832e-05,0.0,0 STARLINK-3886,1 52582U 22051AY  22215.91668981  .00005832  00000-0  38431-3 0  9992,2 52582  53.2162 256.8618 0001815  45.5441 175.8670 15.08828647  1304,6917.915,95.438,541.036,538.524,0.0
52582.0,STARLINK-3886,PAYLOAD,2022-08-04 06:00:00,15.08849478,0.000185,53.2163,255.3662,46.3368,186.5915,-0.0017238,-0.00027625,0.0,0 STARLINK-3886,1 52582U 22051AY  22216.25001157 -.00027625  00000-0 -17238-2 0  9993,2 52582  53.2163 255.3662 0001850  46.3368 186.5915 15.08849478 13370,6917.851,95.437,540.996,538.437,0.0
52582.0,STARLINK-3886,PAYLOAD,2022-08-04 14:00:01,15.08817085,0.0001989,53.2159,253.8708,41.5056,203.0207,0.0022888,0.00036304,0.0,0 STARLINK-3886,1 52582U 22051AY  22216.58334491  .00036304  00000-0  22888-2 0  9998,2 52582  53.2159 253.8708 0001989  41.5056 203.0207 15.08817085  1301,6917.95,95.439,541.191,538.439,0.0
